CCSDS_OMM_VERS = 2.0
CREATION_DATE  = 
ORIGINATOR     = 

OBJECT_NAME    = ISS OBJECT XX
OBJECT_ID      = 1998-067XX
CENTER_NAME    = EARTH
REF_FRAME      = TEME
TIME_SYSTEM    = UTC
MEAN_ELEMENT_THEORY = SGP/SGP4

EPOCH          = 2026-03-11T03:57:51.221952
MEAN_MOTION    = 15.76233813
ECCENTRICITY   = .0007069
INCLINATION    = 51.6235
RA_OF_ASC_NODE = 56.4689
ARG_OF_PERICENTER = 92.6185
MEAN_ANOMALY   = 267.5624

EPHEMERIS_TYPE = 0
CLASSIFICATION_TYPE = U
NORAD_CAT_ID   = 66911
ELEMENT_SET_NO = 999
REV_AT_EPOCH   = 1542
BSTAR          = .18152E-2
MEAN_MOTION_DOT = .301388E-2
MEAN_MOTION_DDOT = 0

CCSDS_OMM_VERS = 2.0
CREATION_DATE  = 
ORIGINATOR     = 

OBJECT_NAME    = ISS OBJECT XY
OBJECT_ID      = 1998-067XY
CENTER_NAME    = EARTH
REF_FRAME      = TEME
TIME_SYSTEM    = UTC
MEAN_ELEMENT_THEORY = SGP/SGP4

EPOCH          = 2026-03-10T23:42:00.286848
MEAN_MOTION    = 15.63960594
ECCENTRICITY   = .0003215
INCLINATION    = 51.6270
RA_OF_ASC_NODE = 60.5710
ARG_OF_PERICENTER = 94.9911
MEAN_ANOMALY   = 265.1451

EPHEMERIS_TYPE = 0
CLASSIFICATION_TYPE = U
NORAD_CAT_ID   = 66912
ELEMENT_SET_NO = 999
REV_AT_EPOCH   = 1535
BSTAR          = .11051E-2
MEAN_MOTION_DOT = .107127E-2
MEAN_MOTION_DDOT = 0

CCSDS_OMM_VERS = 2.0
CREATION_DATE  = 
ORIGINATOR     = 

OBJECT_NAME    = KNACKSAT-2
OBJECT_ID      = 1998-067XZ
CENTER_NAME    = EARTH
REF_FRAME      = TEME
TIME_SYSTEM    = UTC
MEAN_ELEMENT_THEORY = SGP/SGP4

EPOCH          = 2026-03-11T03:27:48.102336
MEAN_MOTION    = 15.51956070
ECCENTRICITY   = .0009476
INCLINATION    = 51.6310
RA_OF_ASC_NODE = 64.6207
ARG_OF_PERICENTER = 191.0290
MEAN_ANOMALY   = 169.0494

EPHEMERIS_TYPE = 0
CLASSIFICATION_TYPE = U
NORAD_CAT_ID   = 67683
ELEMENT_SET_NO = 999
REV_AT_EPOCH   = 501
BSTAR          = .69548E-3
MEAN_MOTION_DOT = .42386E-3
MEAN_MOTION_DDOT = 0

CCSDS_OMM_VERS = 2.0
CREATION_DATE  = 
ORIGINATOR     = 

OBJECT_NAME    = GXIBA-1
OBJECT_ID      = 1998-067YA
CENTER_NAME    = EARTH
REF_FRAME      = TEME
TIME_SYSTEM    = UTC
MEAN_ELEMENT_THEORY = SGP/SGP4

EPOCH          = 2026-03-11T04:17:40.804800
MEAN_MOTION    = 15.54589143
ECCENTRICITY   = .0011101
INCLINATION    = 51.6309
RA_OF_ASC_NODE = 64.1034
ARG_OF_PERICENTER = 180.7546
MEAN_ANOMALY   = 179.3430

EPHEMERIS_TYPE = 0
CLASSIFICATION_TYPE = U
NORAD_CAT_ID   = 67684
ELEMENT_SET_NO = 999
REV_AT_EPOCH   = 502
BSTAR          = .12587E-2
MEAN_MOTION_DOT = .85374E-3
MEAN_MOTION_DDOT = 0

CCSDS_OMM_VERS = 2.0
CREATION_DATE  = 
ORIGINATOR     = 

OBJECT_NAME    = CORAL
OBJECT_ID      = 1998-067YB
CENTER_NAME    = EARTH
REF_FRAME      = TEME
TIME_SYSTEM    = UTC
MEAN_ELEMENT_THEORY = SGP/SGP4

EPOCH          = 2026-03-11T04:53:37.291776
MEAN_MOTION    = 15.52342723
ECCENTRICITY   = .0011501
INCLINATION    = 51.6308
RA_OF_ASC_NODE = 64.2697
ARG_OF_PERICENTER = 187.8017
MEAN_ANOMALY   = 172.2796

EPHEMERIS_TYPE = 0
CLASSIFICATION_TYPE = U
NORAD_CAT_ID   = 67685
ELEMENT_SET_NO = 999
REV_AT_EPOCH   = 502
BSTAR          = .78082E-3
MEAN_MOTION_DOT = .48395E-3
MEAN_MOTION_DDOT = 0

CCSDS_OMM_VERS = 2.0
CREATION_DATE  = 
ORIGINATOR     = 

OBJECT_NAME    = ISS OBJECT YC
OBJECT_ID      = 1998-067YC
CENTER_NAME    = EARTH
REF_FRAME      = TEME
TIME_SYSTEM    = UTC
MEAN_ELEMENT_THEORY = SGP/SGP4

EPOCH          = 2026-03-11T04:44:53.820960
MEAN_MOTION    = 15.52912020
ECCENTRICITY   = .0008014
INCLINATION    = 51.6311
RA_OF_ASC_NODE = 64.2310
ARG_OF_PERICENTER = 155.8547
MEAN_ANOMALY   = 204.2820

EPHEMERIS_TYPE = 0
CLASSIFICATION_TYPE = U
NORAD_CAT_ID   = 67686
ELEMENT_SET_NO = 999
REV_AT_EPOCH   = 502
BSTAR          = .92437E-3
MEAN_MOTION_DOT = .58573E-3
MEAN_MOTION_DDOT = 0

CCSDS_OMM_VERS = 2.0
CREATION_DATE  = 
ORIGINATOR     = 

OBJECT_NAME    = LEOPARD
OBJECT_ID      = 1998-067YD
CENTER_NAME    = EARTH
REF_FRAME      = TEME
TIME_SYSTEM    = UTC
MEAN_ELEMENT_THEORY = SGP/SGP4

EPOCH          = 2026-03-11T04:56:54.385728
MEAN_MOTION    = 15.52145288
ECCENTRICITY   = .0007945
INCLINATION    = 51.6320
RA_OF_ASC_NODE = 64.2868
ARG_OF_PERICENTER = 159.2557
MEAN_ANOMALY   = 200.8756

EPHEMERIS_TYPE = 0
CLASSIFICATION_TYPE = U
NORAD_CAT_ID   = 67687
ELEMENT_SET_NO = 999
REV_AT_EPOCH   = 494
BSTAR          = .74305E-3
MEAN_MOTION_DOT = .45624E-3
MEAN_MOTION_DDOT = 0

CCSDS_OMM_VERS = 2.0
CREATION_DATE  = 
ORIGINATOR     = 

OBJECT_NAME    = ISS OBJECT YE
OBJECT_ID      = 1998-067YE
CENTER_NAME    = EARTH
REF_FRAME      = TEME
TIME_SYSTEM    = UTC
MEAN_ELEMENT_THEORY = SGP/SGP4

EPOCH          = 2026-03-11T04:48:51.081408
MEAN_MOTION    = 15.52646774
ECCENTRICITY   = .0007959
INCLINATION    = 51.6311
RA_OF_ASC_NODE = 64.2495
ARG_OF_PERICENTER = 156.4926
MEAN_ANOMALY   = 203.6429

EPHEMERIS_TYPE = 0
CLASSIFICATION_TYPE = U
NORAD_CAT_ID   = 67688
ELEMENT_SET_NO = 999
REV_AT_EPOCH   = 494
BSTAR          = .86286E-3
MEAN_MOTION_DOT = .54087E-3
MEAN_MOTION_DDOT = 0

CCSDS_OMM_VERS = 2.0
CREATION_DATE  = 
ORIGINATOR     = 

OBJECT_NAME    = CREW DRAGON 12
OBJECT_ID      = 2026-031A
CENTER_NAME    = EARTH
REF_FRAME      = TEME
TIME_SYSTEM    = UTC
MEAN_ELEMENT_THEORY = SGP/SGP4

EPOCH          = 2026-03-11T04:35:18.514464
MEAN_MOTION    = 15.48575655
ECCENTRICITY   = .0007932
INCLINATION    = 51.6325
RA_OF_ASC_NODE = 64.9326
ARG_OF_PERICENTER = 179.9008
MEAN_ANOMALY   = 180.1983

EPHEMERIS_TYPE = 0
CLASSIFICATION_TYPE = U
NORAD_CAT_ID   = 67796
ELEMENT_SET_NO = 999
REV_AT_EPOCH   = 55646
BSTAR          = .1777E-3
MEAN_MOTION_DOT = .9215E-4
MEAN_MOTION_DDOT = 0

