ISS OBJECT XX           
1 66911U 98067XX  26070.16517618  .00301388  00000+0  18152-2 0  9994
2 66911  51.6235  56.4689 0007069  92.6185 267.5624 15.76233813 15421
ISS OBJECT XY           
1 66912U 98067XY  26069.98750332  .00107127  00000+0  11051-2 0  9991
2 66912  51.6270  60.5710 0003215  94.9911 265.1451 15.63960594 15356
KNACKSAT-2              
1 67683U 98067XZ  26070.14430674  .00042386  00000+0  69548-3 0  9991
2 67683  51.6310  64.6207 0009476 191.0290 169.0494 15.51956070  5019
GXIBA-1                 
1 67684U 98067YA  26070.17894450  .00085374  00000+0  12587-2 0  9995
2 67684  51.6309  64.1034 0011101 180.7546 179.3430 15.54589143  5029
CORAL                   
1 67685U 98067YB  26070.20390384  .00048395  00000+0  78082-3 0  9992
2 67685  51.6308  64.2697 0011501 187.8017 172.2796 15.52342723  5026
ISS OBJECT YC           
1 67686U 98067YC  26070.19784515  .00058573  00000+0  92437-3 0  9993
2 67686  51.6311  64.2310 0008014 155.8547 204.2820 15.52912020  5028
LEOPARD                 
1 67687U 98067YD  26070.20618502  .00045624  00000+0  74305-3 0  9995
2 67687  51.6320  64.2868 0007945 159.2557 200.8756 15.52145288  4942
ISS OBJECT YE           
1 67688U 98067YE  26070.20059122  .00054087  00000+0  86286-3 0  9997
2 67688  51.6311  64.2495 0007959 156.4926 203.6429 15.52646774  4947
CREW DRAGON 12          
1 67796U 26031A   26070.19118651  .00009215  00000+0  17770-3 0  9995
2 67796  51.6325  64.9326 0007932 179.9008 180.1983 15.48575655556461
